OBJECT_NAME,OBJECT_ID,EPOCH,MEAN_MOTION,ECCENTRICITY,INCLINATION,RA_OF_ASC_NODE,ARG_OF_PERICENTER,MEAN_ANOMALY,EPHEMERIS_TYPE,CLASSIFICATION_TYPE,NORAD_CAT_ID,ELEMENT_SET_NO,REV_AT_EPOCH,BSTAR,MEAN_MOTION_DOT,MEAN_MOTION_DDOT
RS-44 & BREEZE-KM R/B,2019-096E,2026-07-17T13:46:14.270592,12.79748887,.0218494,82.5243,319.5142,73.4624,289.0355,0,U,44909,999,30623,.2815E-4,.2E-6,0
JILIN-1 KUANFU 01,2020-003A,2026-07-17T16:27:43.794720,15.10874694,.0009505,97.5019,272.0469,187.9857,172.1223,0,U,45016,999,35993,.95879E-4,.1533E-4,0
XINGYUN-2 01,2020-028A,2026-07-17T17:16:15.747744,15.11922396,.0010833,97.4877,190.5189,96.7330,263.5134,0,U,45602,999,33945,.10174E-3,.1681E-4,0
XINGYUN-2 02,2020-028B,2026-07-17T16:53:24.205632,15.11640601,.0011363,97.5068,204.1612,157.7016,202.4711,0,U,45603,999,33944,.34678E-4,.526E-5,0
HAIYANG-1D,2020-036A,2026-07-17T17:45:46.206432,14.34181612,.000397,98.4563,139.7570,65.5921,294.5678,0,U,45721,999,31935,-.24542E-4,-.112E-5,0
M2 PATHFINDER,2020-037E,2026-07-17T12:04:21.086112,15.04794835,.00127,97.8140,30.0778,55.2846,304.9574,0,U,45727,999,33005,.49423E-4,.634E-5,0
GAOFEN DUOMO (GFDM),2020-042A,2026-07-17T16:41:28.545792,14.76803815,.0010581,97.7727,257.4694,345.0804,15.0093,0,U,45856,999,32551,.25602E-4,.131E-5,0
ZIYUAN 3-03 (ZY 3-03),2020-051A,2026-07-17T16:53:11.827968,15.21212997,.0002945,97.5362,265.7235,233.2965,126.8000,0,U,45939,999,33198,.12151E-3,.264E-4,0
NEMO-HD,2020-061F,2026-07-17T16:50:52.984032,15.45170145,.0001015,97.1897,260.3563,104.6588,255.4774,0,U,46277,999,32669,.13148E-3,.6146E-4,0
NAPA-1,2020-061BA,2026-07-17T18:05:09.813120,15.72241789,.0002591,97.2434,274.0306,172.7586,187.3715,0,U,46320,999,32653,.41433E-3,.54727E-3,0
JILIN-1 GAOFEN 3E,2020-065D,2026-07-17T17:02:23.307072,15.67474456,.0009797,97.2204,252.1055,64.0074,296.2195,0,U,46457,999,32453,.41356E-3,.44918E-3,0
JILIN-1 GAOFEN 3F,2020-065E,2026-07-17T15:58:55.380864,15.64139718,.0011121,97.2159,249.2372,49.5674,310.6554,0,U,46458,999,32446,.38454E-3,.36542E-3,0
JILIN-1 GAOFEN 3G,2020-065F,2026-07-17T15:48:18.792576,15.77353715,.0005788,97.2217,256.6041,262.4890,97.5719,0,U,46459,999,32473,.49567E-3,.81987E-3,0
JILIN-1 GAOFEN 3H,2020-065G,2026-07-17T17:01:32.801952,15.72599708,.000679,97.2165,252.7718,194.9012,165.2053,0,U,46460,999,32467,.45662E-3,.61359E-3,0
HAIYANG-2C,2020-066A,2026-07-17T17:54:53.178912,13.83373850,.0007495,65.9973,139.1993,237.1757,122.8590,0,U,46469,999,29372,.29151E-3,.24E-5,0
HJ-2A,2020-067A,2026-07-17T17:28:41.530080,14.76552503,.000435,97.8822,276.3775,148.0429,212.1045,0,U,46478,999,31276,.12471E-3,.82E-5,0
HJ-2B,2020-067B,2026-07-17T16:43:47.663616,14.76511606,.0002023,97.8887,277.3932,102.9927,257.1509,0,U,46479,999,31276,.23987E-4,.117E-5,0
GONETS-M 17,2020-068A,2026-07-17T17:14:01.913280,12.42873749,.0021725,82.5019,328.5085,330.9410,29.0459,0,U,46486,999,26295,-.18187E-3,-.15E-6,0
GONETS-M 18,2020-068B,2026-07-17T16:21:40.810176,12.42874699,.0018961,82.4973,327.6374,327.5578,32.4335,0,U,46487,999,26293,-.14817E-3,-.11E-6,0
GONETS-M 19,2020-068C,2026-07-17T17:41:34.963872,12.42892581,.001293,82.4997,328.0589,344.3693,15.6986,0,U,46488,999,26304,-.27883E-3,-.29E-6,0
DEKART,2020-068H,2026-07-17T17:26:31.680384,15.37983314,.0009534,97.8742,210.1992,164.3914,195.7626,0,U,46493,999,32046,.17367E-3,.6404E-4,0
NORBI,2020-068J,2026-07-17T17:03:23.946912,15.49693316,.0008473,97.8613,217.3951,136.2406,223.9517,0,U,46494,999,32093,.25428E-3,.14018E-3,0
SALSAT,2020-068K,2026-07-16T23:14:24.421344,15.30186484,.0009384,97.8858,202.8562,186.4299,173.6821,0,U,46495,999,31991,.13663E-3,.3909E-4,0
ICEYE-X6,2020-068M,2026-07-17T17:11:54.368736,15.04674477,.0007012,98.0993,193.8526,3.3498,356.7772,0,U,46497,999,31782,.93176E-4,.1243E-4,0
NETSAT-4,2020-068U,2026-07-17T12:18:40.512096,15.44804846,.0005022,97.8604,209.2132,185.0882,175.0315,0,U,46504,999,32045,.21295E-3,.9879E-4,0
NETSAT-3,2020-068V,2026-07-17T11:27:14.908032,15.43656334,.0004131,97.8655,207.3542,201.2303,158.8772,0,U,46505,999,32035,.21579E-3,.9627E-4,0
NETSAT-1,2020-068W,2026-07-17T10:45:39.162816,15.35276284,.0002578,97.8756,201.2899,249.1069,110.9897,0,U,46506,999,31994,.19126E-3,.6461E-4,0
NETSAT-2,2020-068X,2026-07-17T16:51:15.166368,15.47232385,.0002528,97.8615,209.4309,197.5532,162.5629,0,U,46507,999,32045,.26287E-3,.13283E-3,0
