RS-44 & BREEZE-KM R/B   
1 44909U 19096E   26198.57377628  .00000020  00000+0  28150-4 0  9993
2 44909  82.5243 319.5142 0218494  73.4624 289.0355 12.79748887306238
JILIN-1 KUANFU 01       
1 45016U 20003A   26198.68592355  .00001533  00000+0  95879-4 0  9993
2 45016  97.5019 272.0469 0009505 187.9857 172.1223 15.10874694359935
XINGYUN-2 01            
1 45602U 20028A   26198.71962671  .00001681  00000+0  10174-3 0  9995
2 45602  97.4877 190.5189 0010833  96.7330 263.5134 15.11922396339454
XINGYUN-2 02            
1 45603U 20028B   26198.70375238  .00000526  00000+0  34678-4 0  9995
2 45603  97.5068 204.1612 0011363 157.7016 202.4711 15.11640601339447
HAIYANG-1D              
1 45721U 20036A   26198.74011813 -.00000112  00000+0 -24542-4 0  9997
2 45721  98.4563 139.7570 0003970  65.5921 294.5678 14.34181612319358
M2 PATHFINDER           
1 45727U 20037E   26198.50302183  .00000634  00000+0  49423-4 0  9993
2 45727  97.8140  30.0778 0012700  55.2846 304.9574 15.04794835330050
GAOFEN DUOMO (GFDM)     
1 45856U 20042A   26198.69546928  .00000131  00000+0  25602-4 0  9994
2 45856  97.7727 257.4694 0010581 345.0804  15.0093 14.76803815325512
ZIYUAN 3-03 (ZY 3-03)   
1 45939U 20051A   26198.70360912  .00002640  00000+0  12151-3 0  9996
2 45939  97.5362 265.7235 0002945 233.2965 126.8000 15.21212997331984
NEMO-HD                 
1 46277U 20061F   26198.70200213  .00006146  00000+0  13148-3 0  9992
2 46277  97.1897 260.3563 0001015 104.6588 255.4774 15.45170145326696
NAPA-1                  
1 46320U 20061BA  26198.75358580  .00054727  00000+0  41433-3 0  9993
2 46320  97.2434 274.0306 0002591 172.7586 187.3715 15.72241789326538
JILIN-1 GAOFEN 3E       
1 46457U 20065D   26198.70999198  .00044918  00000+0  41356-3 0  9994
2 46457  97.2204 252.1055 0009797  64.0074 296.2195 15.67474456324535
JILIN-1 GAOFEN 3F       
1 46458U 20065E   26198.66591876  .00036542  00000+0  38454-3 0  9990
2 46458  97.2159 249.2372 0011121  49.5674 310.6554 15.64139718324460
JILIN-1 GAOFEN 3G       
1 46459U 20065F   26198.65855084  .00081987  00000+0  49567-3 0  9994
2 46459  97.2217 256.6041 0005788 262.4890  97.5719 15.77353715324732
JILIN-1 GAOFEN 3H       
1 46460U 20065G   26198.70940743  .00061359  00000+0  45662-3 0  9992
2 46460  97.2165 252.7718 0006790 194.9012 165.2053 15.72599708324679
HAIYANG-2C              
1 46469U 20066A   26198.74644883  .00000240  00000+0  29151-3 0  9999
2 46469  65.9973 139.1993 0007495 237.1757 122.8590 13.83373850293723
HJ-2A                   
1 46478U 20067A   26198.72825845  .00000820  00000+0  12471-3 0  9998
2 46478  97.8822 276.3775 0004350 148.0429 212.1045 14.76552503312766
HJ-2B                   
1 46479U 20067B   26198.69707944  .00000117  00000+0  23987-4 0  9998
2 46479  97.8887 277.3932 0002023 102.9927 257.1509 14.76511606312764
GONETS-M 17             
1 46486U 20068A   26198.71807770 -.00000015  00000+0 -18187-3 0  9992
2 46486  82.5019 328.5085 0021725 330.9410  29.0459 12.42873749262953
GONETS-M 18             
1 46487U 20068B   26198.68172234 -.00000011  00000+0 -14817-3 0  9991
2 46487  82.4973 327.6374 0018961 327.5578  32.4335 12.42874699262932
GONETS-M 19             
1 46488U 20068C   26198.73721023 -.00000029  00000+0 -27883-3 0  9990
2 46488  82.4997 328.0589 0012930 344.3693  15.6986 12.42892581263045
DEKART                  
1 46493U 20068H   26198.72675556  .00006404  00000+0  17367-3 0  9991
2 46493  97.8742 210.1992 0009534 164.3914 195.7626 15.37983314320463
NORBI                   
1 46494U 20068J   26198.71069383  .00014018  00000+0  25428-3 0  9993
2 46494  97.8613 217.3951 0008473 136.2406 223.9517 15.49693316320938
SALSAT                  
1 46495U 20068K   26197.96833821  .00003909  00000+0  13663-3 0  9991
2 46495  97.8858 202.8562 0009384 186.4299 173.6821 15.30186484319914
ICEYE-X6                
1 46497U 20068M   26198.71660149  .00001243  00000+0  93176-4 0  9995
2 46497  98.0993 193.8526 0007012   3.3498 356.7772 15.04674477317824
NETSAT-4                
1 46504U 20068U   26198.51296889  .00009879  00000+0  21295-3 0  9993
2 46504  97.8604 209.2132 0005022 185.0882 175.0315 15.44804846320455
NETSAT-3                
1 46505U 20068V   26198.47725588  .00009627  00000+0  21579-3 0  9998
2 46505  97.8655 207.3542 0004131 201.2303 158.8772 15.43656334320356
NETSAT-1                
1 46506U 20068W   26198.44836994  .00006461  00000+0  19126-3 0  9998
2 46506  97.8756 201.2899 0002578 249.1069 110.9897 15.35276284319943
NETSAT-2                
1 46507U 20068X   26198.70225887  .00013283  00000+0  26287-3 0  9997
2 46507  97.8615 209.4309 0002528 197.5532 162.5629 15.47232385320451
